{
 "type": "FeatureCollection",
 "name": "sample_squares",
 "bbox": [
  6.5125886,
  47.4735222,
  14.20364,
  54.9372017
 ],
 "features": [
  {
   "type": "Feature",
   "bbox": [
    13.3778184,
    52.5010222,
    13.4531036,
    52.5469421
   ],
   "geometry": {
    "type": "Polygon",
    "coordinates": [
     [
      [
       13.3794732,
       52.5010222
      ],
      [
       13.3941989,
       52.5012229
      ],
      [
       13.4089248,
       52.5014219
      ],
      [
       13.4236509,
       52.501619
      ],
      [
       13.4383772,
       52.5018143
      ],
      [
       13.4531036,
       52.5020078
      ],
      [
       13.452788,
       52.5109947
      ],
      [
       13.4524722,
       52.5199816
      ],
      [
       13.4521563,
       52.5289684
      ],
      [
       13.4518402,
       52.5379553
      ],
      [
       13.4515239,
       52.5469421
      ],
      [
       13.4367825,
       52.5467484
      ],
      [
       13.4220412,
       52.5465528
      ],
      [
       13.4073001,
       52.5463553
      ],
      [
       13.3925591,
       52.546156
      ],
      [
       13.3778184,
       52.5459549
      ],
      [
       13.3781497,
       52.5369684
      ],
      [
       13.3784808,
       52.5279819
      ],
      [
       13.3788118,
       52.5189953
      ],
      [
       13.3791426,
       52.5100087
      ],
      [
       13.3794732,
       52.5010222
      ]
     ]
    ]
   },
   "properties": {
    "key": "be",
    "place": "Berlin-Mitte",
    "why": "capital (city-state)",
    "utm_epsg": 25833,
    "utm_bbox_km": "390,5818,395,5823",
    "bbox_env": "BBOX=\"390,5818,395,5823\"",
    "size_km": 5
   }
  },
  {
   "type": "Feature",
   "bbox": [
    8.7759423,
    53.0602833,
    8.8507834,
    53.1053466
   ],
   "geometry": {
    "type": "Polygon",
    "coordinates": [
     [
      [
       8.7761756,
       53.0602833
      ],
      [
       8.7910971,
       53.0603104
      ],
      [
       8.8060186,
       53.0603357
      ],
      [
       8.8209402,
       53.0603591
      ],
      [
       8.8358618,
       53.0603806
      ],
      [
       8.8507834,
       53.0604003
      ],
      [
       8.8507523,
       53.0693896
      ],
      [
       8.8507212,
       53.0783788
      ],
      [
       8.8506901,
       53.0873681
      ],
      [
       8.850659,
       53.0963574
      ],
      [
       8.8506279,
       53.1053466
      ],
      [
       8.8356907,
       53.1053269
      ],
      [
       8.8207536,
       53.1053054
      ],
      [
       8.8058165,
       53.105282
      ],
      [
       8.7908794,
       53.1052567
      ],
      [
       8.7759423,
       53.1052295
      ],
      [
       8.775989,
       53.0962403
      ],
      [
       8.7760357,
       53.0872511
      ],
      [
       8.7760823,
       53.0782618
      ],
      [
       8.776129,
       53.0692726
      ],
      [
       8.7761756,
       53.0602833
      ]
     ]
    ]
   },
   "properties": {
    "key": "hb",
    "place": "Bremen",
    "why": "capital (city-state)",
    "utm_epsg": 25832,
    "utm_bbox_km": "485,5879,490,5884",
    "bbox_env": "BBOX=\"485,5879,490,5884\"",
    "size_km": 5
   }
  },
  {
   "type": "Feature",
   "bbox": [
    9.9655997,
    53.5323782,
    10.0421276,
    53.5779476
   ],
   "geometry": {
    "type": "Polygon",
    "coordinates": [
     [
      [
       9.9655997,
       53.5330111
      ],
      [
       9.9806848,
       53.5328883
      ],
      [
       9.9957697,
       53.5327636
      ],
      [
       10.0108546,
       53.5326371
      ],
      [
       10.0259393,
       53.5325086
      ],
      [
       10.041024,
       53.5323782
      ],
      [
       10.0412445,
       53.5413653
      ],
      [
       10.0414651,
       53.5503524
      ],
      [
       10.0416858,
       53.5593395
      ],
      [
       10.0419067,
       53.5683266
      ],
      [
       10.0421276,
       53.5773137
      ],
      [
       10.027027,
       53.5774443
      ],
      [
       10.0119263,
       53.577573
      ],
      [
       9.9968254,
       53.5776998
      ],
      [
       9.9817245,
       53.5778246
      ],
      [
       9.9666234,
       53.5779476
      ],
      [
       9.9664184,
       53.5689603
      ],
      [
       9.9662136,
       53.559973
      ],
      [
       9.9660088,
       53.5509857
      ],
      [
       9.9658042,
       53.5419984
      ],
      [
       9.9655997,
       53.5330111
      ]
     ]
    ]
   },
   "properties": {
    "key": "hh",
    "place": "Hamburg",
    "why": "capital (city-state)",
    "utm_epsg": 25832,
    "utm_bbox_km": "564,5932,569,5937",
    "bbox_env": "BBOX=\"564,5932,569,5937\"",
    "size_km": 5
   }
  },
  {
   "type": "Feature",
   "bbox": [
    8.6689729,
    49.3912207,
    8.7381753,
    49.4363717
   ],
   "geometry": {
    "type": "Polygon",
    "coordinates": [
     [
      [
       8.6692752,
       49.3912207
      ],
      [
       8.6830552,
       49.3912593
      ],
      [
       8.6968352,
       49.3912963
      ],
      [
       8.7106152,
       49.3913316
      ],
      [
       8.7243953,
       49.3913653
      ],
      [
       8.7381753,
       49.3913973
      ],
      [
       8.7381275,
       49.4003922
      ],
      [
       8.7380797,
       49.4093871
      ],
      [
       8.7380318,
       49.418382
      ],
      [
       8.7379839,
       49.4273768
      ],
      [
       8.737936,
       49.4363717
      ],
      [
       8.7241433,
       49.4363396
      ],
      [
       8.7103507,
       49.4363059
      ],
      [
       8.6965581,
       49.4362705
      ],
      [
       8.6827655,
       49.4362335
      ],
      [
       8.6689729,
       49.4361948
      ],
      [
       8.6690334,
       49.4272
      ],
      [
       8.6690939,
       49.4182052
      ],
      [
       8.6691544,
       49.4092104
      ],
      [
       8.6692148,
       49.4002156
      ],
      [
       8.6692752,
       49.3912207
      ]
     ]
    ]
   },
   "properties": {
    "key": "bw",
    "place": "Heidelberg",
    "why": "Neckar valley to Koenigstuhl, ~110->570 m",
    "utm_epsg": 25832,
    "utm_bbox_km": "476,5471,481,5476",
    "bbox_env": "BBOX=\"476,5471,481,5476\"",
    "size_km": 5
   }
  },
  {
   "type": "Feature",
   "bbox": [
    11.0703892,
    47.4735222,
    11.1385265,
    47.5196997
   ],
   "geometry": {
    "type": "Polygon",
    "coordinates": [
     [
      [
       11.0703892,
       47.4747393
      ],
      [
       11.0836519,
       47.4744989
      ],
      [
       11.0969144,
       47.4742571
      ],
      [
       11.1101768,
       47.4740137
      ],
      [
       11.123439,
       47.4737687
      ],
      [
       11.136701,
       47.4735222
      ],
      [
       11.1370658,
       47.482514
      ],
      [
       11.1374307,
       47.4915057
      ],
      [
       11.1377958,
       47.5004974
      ],
      [
       11.1381611,
       47.5094891
      ],
      [
       11.1385265,
       47.5184808
      ],
      [
       11.1252532,
       47.5187277
      ],
      [
       11.1119797,
       47.518973
      ],
      [
       11.098706,
       47.5192168
      ],
      [
       11.0854321,
       47.519459
      ],
      [
       11.0721581,
       47.5196997
      ],
      [
       11.071804,
       47.5107077
      ],
      [
       11.07145,
       47.5017156
      ],
      [
       11.0710962,
       47.4927235
      ],
      [
       11.0707426,
       47.4837314
      ],
      [
       11.0703892,
       47.4747393
      ]
     ]
    ]
   },
   "properties": {
    "key": "by",
    "place": "Garmisch-Partenkirchen",
    "why": "Alps, Zugspitze massif",
    "utm_epsg": 25832,
    "utm_bbox_km": "656,5260,661,5265",
    "bbox_env": "BBOX=\"656,5260,661,5265\"",
    "size_km": 5
   }
  },
  {
   "type": "Feature",
   "bbox": [
    13.9390865,
    51.8510251,
    14.0127246,
    51.8966057
   ],
   "geometry": {
    "type": "Polygon",
    "coordinates": [
     [
      [
       13.9401438,
       51.8510251
      ],
      [
       13.9546598,
       51.851155
      ],
      [
       13.9691758,
       51.8512831
      ],
      [
       13.983692,
       51.8514094
      ],
      [
       13.9982083,
       51.8515339
      ],
      [
       14.0127246,
       51.8516566
      ],
      [
       14.0125279,
       51.8606465
      ],
      [
       14.012331,
       51.8696363
      ],
      [
       14.012134,
       51.8786261
      ],
      [
       14.0119369,
       51.8876159
      ],
      [
       14.0117397,
       51.8966057
      ],
      [
       13.9972088,
       51.8964828
      ],
      [
       13.9826781,
       51.8963581
      ],
      [
       13.9681475,
       51.8962316
      ],
      [
       13.9536169,
       51.8961032
      ],
      [
       13.9390865,
       51.8959731
      ],
      [
       13.9392982,
       51.8869836
      ],
      [
       13.9395098,
       51.877994
      ],
      [
       13.9397212,
       51.8690044
      ],
      [
       13.9399326,
       51.8600147
      ],
      [
       13.9401438,
       51.8510251
      ]
     ]
    ]
   },
   "properties": {
    "key": "bb",
    "place": "Luebbenau",
    "why": "Spreewald canal parcels",
    "utm_epsg": 25833,
    "utm_bbox_km": "427,5745,432,5750",
    "bbox_env": "BBOX=\"427,5745,432,5750\"",
    "size_km": 5
   }
  },
  {
   "type": "Feature",
   "bbox": [
    7.8975071,
    49.9621159,
    7.968235,
    50.0077199
   ],
   "geometry": {
    "type": "Polygon",
    "coordinates": [
     [
      [
       7.8985344,
       49.9621159
      ],
      [
       7.9124743,
       49.9622474
      ],
      [
       7.9264143,
       49.9623773
      ],
      [
       7.9403545,
       49.9625055
      ],
      [
       7.9542947,
       49.962632
      ],
      [
       7.968235,
       49.9627568
      ],
      [
       7.9680427,
       49.9717495
      ],
      [
       7.9678504,
       49.9807421
      ],
      [
       7.9676579,
       49.9897347
      ],
      [
       7.9674654,
       49.9987273
      ],
      [
       7.9672727,
       50.0077199
      ],
      [
       7.9533194,
       50.0075949
      ],
      [
       7.9393662,
       50.0074682
      ],
      [
       7.925413,
       50.0073398
      ],
      [
       7.91146,
       50.0072097
      ],
      [
       7.8975071,
       50.007078
      ],
      [
       7.8977127,
       49.9980856
      ],
      [
       7.8979183,
       49.9890932
      ],
      [
       7.8981238,
       49.9801008
      ],
      [
       7.8983291,
       49.9711083
      ],
      [
       7.8985344,
       49.9621159
      ]
     ]
    ]
   },
   "properties": {
    "key": "he",
    "place": "Ruedesheim",
    "why": "Rhine gorge, terraced vineyard parcels",
    "utm_epsg": 25832,
    "utm_bbox_km": "421,5535,426,5540",
    "bbox_env": "BBOX=\"421,5535,426,5540\"",
    "size_km": 5
   }
  },
  {
   "type": "Feature",
   "bbox": [
    13.606891,
    54.5535213,
    13.6857092,
    54.599309
   ],
   "geometry": {
    "type": "Polygon",
    "coordinates": [
     [
      [
       13.6084226,
       54.5535213
      ],
      [
       13.6238796,
       54.5536981
      ],
      [
       13.6393367,
       54.5538729
      ],
      [
       13.6547941,
       54.5540458
      ],
      [
       13.6702516,
       54.5542167
      ],
      [
       13.6857092,
       54.5543856
      ],
      [
       13.6854202,
       54.5633703
      ],
      [
       13.6851311,
       54.572355
      ],
      [
       13.6848417,
       54.5813397
      ],
      [
       13.6845523,
       54.5903244
      ],
      [
       13.6842626,
       54.599309
      ],
      [
       13.668788,
       54.5991398
      ],
      [
       13.6533135,
       54.5989687
      ],
      [
       13.6378392,
       54.5987955
      ],
      [
       13.622365,
       54.5986204
      ],
      [
       13.606891,
       54.5984433
      ],
      [
       13.6071977,
       54.5894589
      ],
      [
       13.6075041,
       54.5804745
      ],
      [
       13.6078105,
       54.5714901
      ],
      [
       13.6081166,
       54.5625057
      ],
      [
       13.6084226,
       54.5535213
      ]
     ]
    ]
   },
   "properties": {
    "key": "mv",
    "place": "Sassnitz",
    "why": "Jasmund chalk cliffs, Baltic coast",
    "utm_epsg": 25833,
    "utm_bbox_km": "410,6046,415,6051",
    "bbox_env": "BBOX=\"410,6046,415,6051\"",
    "size_km": 5
   }
  },
  {
   "type": "Feature",
   "bbox": [
    10.3950797,
    51.8916022,
    10.4691813,
    51.9374279
   ],
   "geometry": {
    "type": "Polygon",
    "coordinates": [
     [
      [
       10.3950797,
       51.8924858
      ],
      [
       10.4096071,
       51.8923127
      ],
      [
       10.4241343,
       51.8921378
      ],
      [
       10.4386613,
       51.8919611
      ],
      [
       10.4531883,
       51.8917825
      ],
      [
       10.467715,
       51.8916022
      ],
      [
       10.468008,
       51.9005904
      ],
      [
       10.468301,
       51.9095785
      ],
      [
       10.4685943,
       51.9185667
      ],
      [
       10.4688877,
       51.9275548
      ],
      [
       10.4691813,
       51.9365429
      ],
      [
       10.45464,
       51.9367235
      ],
      [
       10.4400986,
       51.9369023
      ],
      [
       10.425557,
       51.9370793
      ],
      [
       10.4110153,
       51.9372545
      ],
      [
       10.3964735,
       51.9374279
      ],
      [
       10.3961944,
       51.9284396
      ],
      [
       10.3959155,
       51.9194512
      ],
      [
       10.3956368,
       51.9104627
      ],
      [
       10.3953582,
       51.9014743
      ],
      [
       10.3950797,
       51.8924858
      ]
     ]
    ]
   },
   "properties": {
    "key": "ni",
    "place": "Goslar",
    "why": "Harz edge, UNESCO old town",
    "utm_epsg": 25832,
    "utm_bbox_km": "596,5750,601,5755",
    "bbox_env": "BBOX=\"596,5750,601,5755\"",
    "size_km": 5
   }
  },
  {
   "type": "Feature",
   "bbox": [
    7.1733099,
    50.6545529,
    7.2457524,
    50.7005827
   ],
   "geometry": {
    "type": "Polygon",
    "coordinates": [
     [
      [
       7.1750541,
       50.6545529
      ],
      [
       7.1891934,
       50.6547735
      ],
      [
       7.2033329,
       50.6549924
      ],
      [
       7.2174726,
       50.6552096
      ],
      [
       7.2316124,
       50.6554251
      ],
      [
       7.2457524,
       50.6556388
      ],
      [
       7.2454174,
       50.6646276
      ],
      [
       7.2450822,
       50.6736164
      ],
      [
       7.2447469,
       50.6826052
      ],
      [
       7.2444114,
       50.6915939
      ],
      [
       7.2440757,
       50.7005827
      ],
      [
       7.2299222,
       50.7003686
      ],
      [
       7.2157689,
       50.7001528
      ],
      [
       7.2016157,
       50.6999352
      ],
      [
       7.1874627,
       50.699716
      ],
      [
       7.1733099,
       50.699495
      ],
      [
       7.1736591,
       50.6905066
      ],
      [
       7.1740081,
       50.6815182
      ],
      [
       7.174357,
       50.6725298
      ],
      [
       7.1747056,
       50.6635413
      ],
      [
       7.1750541,
       50.6545529
      ]
     ]
    ]
   },
   "properties": {
    "key": "nw",
    "place": "Koenigswinter",
    "why": "Siebengebirge above the Rhine",
    "utm_epsg": 25832,
    "utm_bbox_km": "371,5613,376,5618",
    "bbox_env": "BBOX=\"371,5613,376,5618\"",
    "size_km": 5
   }
  },
  {
   "type": "Feature",
   "bbox": [
    7.6977993,
    50.1219488,
    7.7689471,
    50.16767
   ],
   "geometry": {
    "type": "Polygon",
    "coordinates": [
     [
      [
       7.6990195,
       50.1219488
      ],
      [
       7.7130048,
       50.1221046
      ],
      [
       7.7269902,
       50.1222588
      ],
      [
       7.7409757,
       50.1224113
      ],
      [
       7.7549613,
       50.1225621
      ],
      [
       7.7689471,
       50.1227112
      ],
      [
       7.7687164,
       50.131703
      ],
      [
       7.7684855,
       50.1406948
      ],
      [
       7.7682546,
       50.1496865
      ],
      [
       7.7680236,
       50.1586783
      ],
      [
       7.7677924,
       50.16767
      ],
      [
       7.7537935,
       50.1675206
      ],
      [
       7.7397948,
       50.1673696
      ],
      [
       7.7257961,
       50.1672168
      ],
      [
       7.7117976,
       50.1670624
      ],
      [
       7.6977993,
       50.1669063
      ],
      [
       7.6980435,
       50.1579148
      ],
      [
       7.6982877,
       50.1489233
      ],
      [
       7.6985318,
       50.1399318
      ],
      [
       7.6987757,
       50.1309403
      ],
      [
       7.6990195,
       50.1219488
      ]
     ]
    ]
   },
   "properties": {
    "key": "rp",
    "place": "St. Goarshausen",
    "why": "Loreley gorge",
    "utm_epsg": 25832,
    "utm_bbox_km": "407,5553,412,5558",
    "bbox_env": "BBOX=\"407,5553,412,5558\"",
    "size_km": 5
   }
  },
  {
   "type": "Feature",
   "bbox": [
    6.5125886,
    49.4819272,
    6.5838327,
    49.5283232
   ],
   "geometry": {
    "type": "Polygon",
    "coordinates": [
     [
      [
       6.5148668,
       49.4819272
      ],
      [
       6.5286595,
       49.4822229
      ],
      [
       6.5424525,
       49.4825169
      ],
      [
       6.5562457,
       49.4828093
      ],
      [
       6.5700391,
       49.4831
      ],
      [
       6.5838327,
       49.4833891
      ],
      [
       6.5833902,
       49.492376
      ],
      [
       6.5829474,
       49.5013628
      ],
      [
       6.5825043,
       49.5103496
      ],
      [
       6.5820611,
       49.5193364
      ],
      [
       6.5816176,
       49.5283232
      ],
      [
       6.5678114,
       49.5280336
      ],
      [
       6.5540053,
       49.5277424
      ],
      [
       6.5401995,
       49.5274496
      ],
      [
       6.526394,
       49.5271551
      ],
      [
       6.5125886,
       49.5268589
      ],
      [
       6.5130447,
       49.5178726
      ],
      [
       6.5135006,
       49.5088863
      ],
      [
       6.5139562,
       49.4999
      ],
      [
       6.5144116,
       49.4909136
      ],
      [
       6.5148668,
       49.4819272
      ]
     ]
    ]
   },
   "properties": {
    "key": "sl",
    "place": "Mettlach",
    "why": "Saarschleife meander",
    "utm_epsg": 25832,
    "utm_bbox_km": "320,5484,325,5489",
    "bbox_env": "BBOX=\"320,5484,325,5489\"",
    "size_km": 5
   }
  },
  {
   "type": "Feature",
   "bbox": [
    14.1317083,
    50.8994337,
    14.20364,
    50.9448991
   ],
   "geometry": {
    "type": "Polygon",
    "coordinates": [
     [
      [
       14.1325448,
       50.8994337
      ],
      [
       14.1467636,
       50.8995385
      ],
      [
       14.1609826,
       50.8996416
      ],
      [
       14.1752016,
       50.8997429
      ],
      [
       14.1894208,
       50.8998425
      ],
      [
       14.20364,
       50.8999404
      ],
      [
       14.2034866,
       50.9089321
      ],
      [
       14.2033331,
       50.9179239
      ],
      [
       14.2031795,
       50.9269156
      ],
      [
       14.2030258,
       50.9359074
      ],
      [
       14.2028721,
       50.9448991
      ],
      [
       14.1886392,
       50.9448011
      ],
      [
       14.1744063,
       50.9447013
      ],
      [
       14.1601736,
       50.9445999
      ],
      [
       14.1459409,
       50.9444966
      ],
      [
       14.1317083,
       50.9443917
      ],
      [
       14.1318758,
       50.9354001
      ],
      [
       14.1320432,
       50.9264085
      ],
      [
       14.1322104,
       50.917417
      ],
      [
       14.1323776,
       50.9084254
      ],
      [
       14.1325448,
       50.8994337
      ]
     ]
    ]
   },
   "properties": {
    "key": "sn",
    "place": "Bad Schandau",
    "why": "Saechsische Schweiz sandstone gorge",
    "utm_epsg": 25833,
    "utm_bbox_km": "439,5639,444,5644",
    "bbox_env": "BBOX=\"439,5639,444,5644\"",
    "size_km": 5
   }
  },
  {
   "type": "Feature",
   "bbox": [
    10.6815743,
    51.7797758,
    10.7557652,
    51.8257714
   ],
   "geometry": {
    "type": "Polygon",
    "coordinates": [
     [
      [
       10.6815743,
       51.7808345
      ],
      [
       10.6960638,
       51.7806264
      ],
      [
       10.7105531,
       51.7804164
      ],
      [
       10.7250422,
       51.7802046
      ],
      [
       10.7395312,
       51.7799911
      ],
      [
       10.75402,
       51.7797758
      ],
      [
       10.7543687,
       51.7887628
      ],
      [
       10.7547175,
       51.7977499
      ],
      [
       10.7550666,
       51.8067369
      ],
      [
       10.7554158,
       51.815724
      ],
      [
       10.7557652,
       51.824711
      ],
      [
       10.741262,
       51.8249266
      ],
      [
       10.7267586,
       51.8251405
      ],
      [
       10.7122551,
       51.8253526
      ],
      [
       10.6977513,
       51.8255629
      ],
      [
       10.6832474,
       51.8257714
      ],
      [
       10.6829124,
       51.8167841
      ],
      [
       10.6825776,
       51.8077967
      ],
      [
       10.682243,
       51.7988094
      ],
      [
       10.6819085,
       51.789822
      ],
      [
       10.6815743,
       51.7808345
      ]
     ]
    ]
   },
   "properties": {
    "key": "st",
    "place": "Wernigerode",
    "why": "Harz, Brocken side",
    "utm_epsg": 25832,
    "utm_bbox_km": "616,5738,621,5743",
    "bbox_env": "BBOX=\"616,5738,621,5743\"",
    "size_km": 5
   }
  },
  {
   "type": "Feature",
   "bbox": [
    8.2664104,
    54.8918268,
    8.3451756,
    54.9372017
   ],
   "geometry": {
    "type": "Polygon",
    "coordinates": [
     [
      [
       8.2672271,
       54.8918268
      ],
      [
       8.2828166,
       54.8919198
      ],
      [
       8.2984062,
       54.8920109
      ],
      [
       8.3139959,
       54.8920999
      ],
      [
       8.3295857,
       54.8921869
      ],
      [
       8.3451756,
       54.8922719
      ],
      [
       8.3450298,
       54.9012579
      ],
      [
       8.3448839,
       54.9102439
      ],
      [
       8.344738,
       54.9192298
      ],
      [
       8.3445919,
       54.9282158
      ],
      [
       8.3444458,
       54.9372017
      ],
      [
       8.3288385,
       54.9371166
      ],
      [
       8.3132314,
       54.9370294
      ],
      [
       8.2976243,
       54.9369402
      ],
      [
       8.2820173,
       54.9368491
      ],
      [
       8.2664104,
       54.9367559
      ],
      [
       8.2665739,
       54.9277701
      ],
      [
       8.2667373,
       54.9187843
      ],
      [
       8.2669007,
       54.9097985
      ],
      [
       8.2670639,
       54.9008127
      ],
      [
       8.2672271,
       54.8918268
      ]
     ]
    ]
   },
   "properties": {
    "key": "sh",
    "place": "Westerland",
    "why": "Sylt dunes and coastline",
    "utm_epsg": 25832,
    "utm_bbox_km": "453,6083,458,6088",
    "bbox_env": "BBOX=\"453,6083,458,6088\"",
    "size_km": 5
   }
  },
  {
   "type": "Feature",
   "bbox": [
    10.2957228,
    50.9576059,
    10.3682159,
    51.0033684
   ],
   "geometry": {
    "type": "Polygon",
    "coordinates": [
     [
      [
       10.2957228,
       50.9584173
      ],
      [
       10.3099576,
       50.9582585
      ],
      [
       10.3241922,
       50.958098
      ],
      [
       10.3384267,
       50.9579357
      ],
      [
       10.352661,
       50.9577717
      ],
      [
       10.3668953,
       50.9576059
      ],
      [
       10.3671591,
       50.9665959
      ],
      [
       10.3674231,
       50.9755859
      ],
      [
       10.3676873,
       50.9845759
      ],
      [
       10.3679515,
       50.9935658
      ],
      [
       10.3682159,
       51.0025558
      ],
      [
       10.353968,
       51.0027218
      ],
      [
       10.3397199,
       51.0028861
      ],
      [
       10.3254716,
       51.0030486
      ],
      [
       10.3112233,
       51.0032094
      ],
      [
       10.2969748,
       51.0033684
      ],
      [
       10.2967241,
       50.9943782
      ],
      [
       10.2964736,
       50.985388
      ],
      [
       10.2962232,
       50.9763978
      ],
      [
       10.2959729,
       50.9674076
      ],
      [
       10.2957228,
       50.9584173
      ]
     ]
    ]
   },
   "properties": {
    "key": "th",
    "place": "Eisenach",
    "why": "Wartburg, Thueringer Wald",
    "utm_epsg": 25832,
    "utm_bbox_km": "591,5646,596,5651",
    "bbox_env": "BBOX=\"591,5646,596,5651\"",
    "size_km": 5
   }
  }
 ]
}
